NORAD_CAT_ID,OBJECT_NAME,OBJECT_TYPE,EPOCH,MEAN_MOTION,ECCENTRICITY,INCLINATION,RA_OF_ASC_NODE,ARG_OF_PERICENTER,MEAN_ANOMALY,BSTAR,MEAN_MOTION_DOT,MEAN_MOTION_DDOT,TLE_LINE0,TLE_LINE1,TLE_LINE2,SEMIMAJOR_AXIS,PERIOD,APOGEE,PERIGEE,DECAYED
52126.0,STARLINK-3732,PAYLOAD,2023-11-24 16:21:01,15.08837806,0.0001679,53.215,222.1071,108.5778,251.5397,0.0002078,3.02e-05,0.0,0 STARLINK-3732,1 52126U 22029AQ  23328.68126900  .00003020  00000-0  20780-3 0  9996,2 52126  53.2150 222.1071 0001679 108.5778 251.5397 15.08837806 94717,6917.887,95.438,540.914,538.591,0.0
52126.0,STARLINK-3732,PAYLOAD,2023-11-24 22:42:34,15.08841769,0.0001624,53.2153,220.919,105.8921,254.225,0.00021486,3.133e-05,0.0,0 STARLINK-3732,1 52126U 22029AQ  23328.94622757  .00003133  00000-0  21486-3 0  9995,2 52126  53.2153 220.9190 0001624 105.8921 254.2250 15.08841769 94753,6917.875,95.437,540.863,538.617,0.0
52126.0,STARLINK-3732,PAYLOAD,2023-11-25 03:28:43,15.08849137,0.0001583,53.2155,220.0261,106.613,253.5036,0.0003219,4.84e-05,0.0,0 STARLINK-3732,1 52126U 22029AQ  23329.14494438  .00004840  00000-0  32190-3 0  9991,2 52126  53.2155 220.0261 0001583 106.6130 253.5036 15.08849137 94784,6917.852,95.437,540.813,538.622,0.0
52126.0,STARLINK-3732,PAYLOAD,2023-11-25 22:33:20,15.08869303,0.0001577,53.215,216.4582,113.2692,246.8466,0.00067702,0.00010512,0.0,0 STARLINK-3732,1 52126U 22029AQ  23329.93981585  .00010512  00000-0  67702-3 0  9992,2 52126  53.2150 216.4582 0001577 113.2692 246.8466 15.08869303 94907,6917.791,95.436,540.747,538.565,0.0
52126.0,STARLINK-3732,PAYLOAD,2023-11-26 01:44:05,15.08878608,0.0001543,53.2154,215.8627,114.541,245.5743,0.00084987,0.00013278,0.0,0 STARLINK-3732,1 52126U 22029AQ  23330.07229064  .00013278  00000-0  84987-3 0  9992,2 52126  53.2154 215.8627 0001543 114.5410 245.5743 15.08878608 94923,6917.762,95.435,540.695,538.56,0.0
52126.0,STARLINK-3732,PAYLOAD,2023-11-26 16:02:35,15.08833073,0.0001431,53.2159,213.1867,114.2493,245.8648,-0.00030758,-5.179e-05,0.0,0 STARLINK-3732,1 52126U 22029AQ  23330.66846134 -.00005179  00000-0 -30758-3 0  9990,2 52126  53.2159 213.1867 0001431 114.2493 245.8648 15.08833073 95014,6917.902,95.438,540.757,538.777,0.0
52126.0,STARLINK-3732,PAYLOAD,2023-11-26 22:24:07,15.0883218,0.0001457,53.2149,211.9971,105.1761,254.9392,-0.00014848,-2.65e-05,0.0,0 STARLINK-3732,1 52126U 22029AQ  23330.93342361 -.00002650  00000-0 -14848-3 0  9996,2 52126  53.2149 211.9971 0001457 105.1761 254.9392 15.08832180 95059,6917.904,95.438,540.777,538.761,0.0
52126.0,STARLINK-3732,PAYLOAD,2023-11-27 01:34:54,15.08832875,0.0001404,53.2151,211.403,91.9021,268.2132,-2.0468e-05,-6.14e-06,0.0,0 STARLINK-3732,1 52126U 22029AQ  23331.06590534 -.00000614  00000-0 -20468-4 0  9992,2 52126  53.2151 211.4030 0001404  91.9021 268.2132 15.08832875 95079,6917.902,95.438,540.738,538.796,0.0
52126.0,STARLINK-3732,PAYLOAD,2023-11-27 22:14:55,15.0883911,0.0001429,53.2144,207.5377,90.7776,269.338,0.00049335,7.572e-05,0.0,0 STARLINK-3732,1 52126U 22029AQ  23331.92703085  .00007572  00000-0  49335-3 0  9995,2 52126  53.2144 207.5377 0001429  90.7776 269.3380 15.08839110 95203,6917.883,95.438,540.737,538.76,0.0
52126.0,STARLINK-3732,PAYLOAD,2023-11-28 22:05:42,15.08852078,0.0001487,53.2141,203.0777,82.7004,277.4157,0.00050862,7.819e-05,0.0,0 STARLINK-3732,1 52126U 22029AQ  23332.92062834  .00007819  00000-0  50862-3 0  9997,2 52126  53.2141 203.0777 0001487  82.7004 277.4157 15.08852078 95350,6917.843,95.437,540.737,538.68,0.0
52126.0,STARLINK-3732,PAYLOAD,2023-11-29 01:16:28,15.08856742,0.0001465,53.2141,202.4824,83.1724,276.9435,0.00057873,8.939e-05,0.0,0 STARLINK-3732,1 52126U 22029AQ  23333.05310621  .00008939  00000-0  57873-3 0  9995,2 52126  53.2141 202.4824 0001465  83.1724 276.9435 15.08856742 95373,6917.829,95.436,540.708,538.681,0.0
52126.0,STARLINK-3732,PAYLOAD,2023-11-29 18:45:42,15.0884649,0.0001962,53.216,199.2033,122.8801,237.238,0.00031407,4.715e-05,0.0,0 STARLINK-3732,1 52126U 22029AQ  23333.78174432  .00004715  00000-0  31407-3 0  9996,2 52126  53.2160 199.2033 0001962 122.8801 237.2380 15.08846490 95488,6917.861,95.437,541.083,538.368,0.0
52126.0,STARLINK-3732,PAYLOAD,2023-11-30 01:07:15,15.08840741,0.0001667,53.2155,198.0167,101.9248,258.1931,3.0276e-05,1.94e-06,0.0,0 STARLINK-3732,1 52126U 22029AQ  23334.04670772  .00000194  00000-0  30276-4 0  9995,2 52126  53.2155 198.0167 0001667 101.9248 258.1931 15.08840741 95524,6917.878,95.438,540.896,538.59,0.0
52126.0,STARLINK-3732,PAYLOAD,2023-12-01 20:02:40,15.08842884,0.0001469,53.2147,189.9919,97.4299,262.686,0.00012718,1.737e-05,0.0,0 STARLINK-3732,1 52126U 22029AQ  23335.83518897  .00001737  00000-0  12718-3 0  9996,2 52126  53.2147 189.9919 0001469  97.4299 262.6860 15.08842884 95794,6917.872,95.437,540.753,538.72,0.0
52126.0,STARLINK-3732,PAYLOAD,2023-12-01 21:38:03,15.08846119,0.0001757,53.2153,189.6904,111.9479,248.17,0.00024492,3.613e-05,0.0,0 STARLINK-3732,1 52126U 22029AQ  23335.90142765  .00003613  00000-0  24492-3 0  9998,2 52126  53.2153 189.6904 0001757 111.9479 248.1700 15.08846119 95803,6917.862,95.437,540.942,538.511,0.0
52126.0,STARLINK-3732,PAYLOAD,2023-12-02 21:28:50,15.08847102,0.000179,53.2153,185.2347,124.7337,235.3824,-0.00014624,-2.615e-05,0.0,0 STARLINK-3732,1 52126U 22029AQ  23336.89502538 -.00002615  00000-0 -14624-3 0  9994,2 52126  53.2153 185.2347 0001790 124.7337 235.3824 15.08847102 95952,6917.859,95.437,540.962,538.485,0.0
52126.0,STARLINK-3732,PAYLOAD,2023-12-03 02:14:59,15.08839767,0.0001406,53.2149,184.3431,87.1726,272.9427,1.5633e-05,-3.9e-07,0.0,0 STARLINK-3732,1 52126U 22029AQ  23337.09374963 -.00000039  00000-0  15633-4 0  9995,2 52126  53.2149 184.3431 0001406  87.1726 272.9427 15.08839767 95986,6917.881,95.438,540.719,538.773,0.0
52126.0,STARLINK-3732,PAYLOAD,2023-12-03 13:22:43,15.08822657,0.0001523,53.2152,182.261,94.2008,265.9158,-0.00015957,-2.825e-05,0.0,0 STARLINK-3732,1 52126U 22029AQ  23337.55744416 -.00002825  00000-0 -15957-3 0  9994,2 52126  53.2152 182.2610 0001523  94.2008 265.9158 15.08822657 96050,6917.933,95.439,540.852,538.745,0.0
52126.0,STARLINK-3732,PAYLOAD,2023-12-03 19:44:15,15.08823403,0.0001637,53.215,181.0741,68.2565,291.8601,-0.00012751,-2.316e-05,0.0,0 STARLINK-3732,1 52126U 22029AQ  23337.82240587 -.00002316  00000-0 -12751-3 0  9998,2 52126  53.2150 181.0741 0001637  68.2565 291.8601 15.08823403 96090,6917.931,95.439,540.929,538.664,0.0
52126.0,STARLINK-3732,PAYLOAD,2023-12-04 13:13:30,15.08829216,0.0001488,53.2151,177.802,81.5693,278.5468,-1.855e-05,-5.83e-06,0.0,0 STARLINK-3732,1 52126U 22029AQ  23338.55104888 -.00000583  00000-0 -18550-4 0  9990,2 52126  53.2151 177.8020 0001488  81.5693 278.5468 15.08829216 96202,6917.913,95.438,540.808,538.749,0.0
52126.0,STARLINK-3732,PAYLOAD,2023-12-05 13:04:17,15.08830847,0.000157,53.2156,173.3417,73.8094,286.3071,0.00022314,3.264e-05,0.0,0 STARLINK-3732,1 52126U 22029AQ  23339.54465262  .00003264  00000-0  22314-3 0  9995,2 52126  53.2156 173.3417 0001570  73.8094 286.3071 15.08830847 96354,6917.908,95.438,540.859,538.687,0.0
52126.0,STARLINK-3732,PAYLOAD,2023-12-07 14:21:14,15.08848224,0.0001584,53.2149,164.1227,75.3473,284.7695,0.0001237,1.682e-05,0.0,0 STARLINK-3732,1 52126U 22029AQ  23341.59808252  .00001682  00000-0  12370-3 0  9996,2 52126  53.2149 164.1227 0001584  75.3473 284.7695 15.08848224 96662,6917.855,95.437,540.816,538.624,0.0
52126.0,STARLINK-3732,PAYLOAD,2023-12-07 19:07:23,15.08848295,0.0001474,53.2152,163.2293,84.1426,275.9734,5.3131e-05,5.58e-06,0.0,0 STARLINK-3732,1 52126U 22029AQ  23341.79680022  .00000558  00000-0  53131-4 0  9993,2 52126  53.2152 163.2293 0001474  84.1426 275.9734 15.08848295 96690,6917.855,95.437,540.74,538.7,0.0
52126.0,STARLINK-3732,PAYLOAD,2023-12-08 14:12:01,15.08841938,0.0001471,53.2151,159.661,88.0818,272.0343,3.6585e-05,2.94e-06,0.0,0 STARLINK-3732,1 52126U 22029AQ  23342.59167910  .00000294  00000-0  36585-4 0  9999,2 52126  53.2151 159.6610 0001471  88.0818 272.0343 15.08841938 96811,6917.874,95.437,540.757,538.722,0.0
52126.0,STARLINK-3732,PAYLOAD,2023-12-08 22:08:56,15.08843845,0.0001472,53.2152,158.1743,86.2259,273.8901,4.1932e-05,3.8e-06,0.0,0 STARLINK-3732,1 52126U 22029AQ  23342.92287665  .00000380  00000-0  41932-4 0  9994,2 52126  53.2152 158.1743 0001472  86.2259 273.8901 15.08843845 96866,6917.869,95.437,540.752,538.715,0.0
52126.0,STARLINK-3732,PAYLOAD,2023-12-09 10:52:02,15.08837207,0.0001479,53.2153,155.7951,86.0886,274.0275,-2.176e-05,-6.34e-06,0.0,0 STARLINK-3732,1 52126U 22029AQ  23343.45280211 -.00000634  00000-0 -21760-4 0  9994,2 52126  53.2153 155.7951 0001479  86.0886 274.0275 15.08837207 96943,6917.889,95.438,540.777,538.731,0.0
52126.0,STARLINK-3732,PAYLOAD,2023-12-09 14:02:48,15.08837749,0.0001463,53.2153,155.2004,87.3424,272.7735,-2.153e-05,-6.31e-06,0.0,0 STARLINK-3732,1 52126U 22029AQ  23343.58528147 -.00000631  00000-0 -21530-4 0  9993,2 52126  53.2153 155.2004 0001463  87.3424 272.7735 15.08837749 96961,6917.887,95.438,540.764,538.74,0.0
52126.0,STARLINK-3732,PAYLOAD,2023-12-09 20:24:20,15.0883847,0.0001465,53.2153,154.011,86.6916,273.4243,-1.8512e-05,-5.83e-06,0.0,0 STARLINK-3732,1 52126U 22029AQ  23343.85024064 -.00000583  00000-0 -18512-4 0  9994,2 52126  53.2153 154.0110 0001465  86.6916 273.4243 15.08838470 97006,6917.885,95.438,540.764,538.737,0.0
52126.0,STARLINK-3732,PAYLOAD,2023-12-10 10:42:48,15.08839016,0.0001461,53.2155,151.3346,86.915,273.2009,9.334e-06,-1.39e-06,0.0,0 STARLINK-3732,1 52126U 22029AQ  23344.44640009 -.00000139  00000-0  93340-5 0  9992,2 52126  53.2155 151.3346 0001461  86.9150 273.2009 15.08839016 97092,6917.883,95.438,540.759,538.738,0.0
52126.0,STARLINK-3732,PAYLOAD,2023-12-10 18:39:44,15.08840231,0.0001454,53.2156,149.8478,86.6559,273.46,1.653e-05,-2.5e-07,0.0,0 STARLINK-3732,1 52126U 22029AQ  23344.77759908 -.00000025  00000-0  16530-4 0  9996,2 52126  53.2156 149.8478 0001454  86.6559 273.4600 15.08840231 97149,6917.88,95.438,540.751,538.739,0.0
